{
  "type": "FeatureCollection",
  "features": [
    {
      "type": "Feature",
      "properties": {
        "norad_id": 35705,
        "name": "COSMOS 2251 DEB",
        "group": "cosmos-2251-debris",
        "lat": -72.24513225078454,
        "lon": 71.86811910775617,
        "alt_km": 682.6106253894504,
        "timestamp": "2025-12-13T22:39:30.107907+00:00",
        "meta_object_name": "COSMOS 2251 DEB",
        "meta_object_id": "1993-036AQA",
        "meta_epoch": "2025-12-13T03:27:37.800000",
        "meta_mean_motion": 14.72278965,
        "meta_eccentricity": 0.00324557,
        "meta_inclination": 74.2743,
        "meta_ra_of_asc_node": 135.0388,
        "meta_arg_of_pericenter": 84.6778,
        "meta_mean_anomaly": 275.8097,
        "meta_ephemeris_type": 0,
        "meta_classification_type": "U",
        "meta_norad_cat_id": 35705,
        "meta_element_set_no": 999,
        "meta_rev_at_epoch": 85932,
        "meta_bstar": 0.0042229347,
        "meta_mean_motion_dot": 0.00026979,
        "meta_mean_motion_ddot": 0,
        "tle_line1": "1 35705U 93036AQA 25347.14418750  .00026979  00000+0  42229-2 0  9995",
        "tle_line2": "2 35705  74.2743 135.0388 0032455  84.6778 275.8097 14.72278965859322"
      },
      "geometry": {
        "type": "Point",
        "coordinates": [
          71.86811910775617,
          -72.24513225078454
        ]
      }
    },
    {
      "type": "Feature",
      "properties": {
        "norad_id": 35706,
        "name": "COSMOS 2251 DEB",
        "group": "cosmos-2251-debris",
        "lat": 68.27272835790221,
        "lon": 107.31100553078875,
        "alt_km": 798.4668406475612,
        "timestamp": "2025-12-13T22:39:30.107918+00:00",
        "meta_object_name": "COSMOS 2251 DEB",
        "meta_object_id": "1993-036AQB",
        "meta_epoch": "2025-12-11T12:17:37.968864",
        "meta_mean_motion": 13.65920781,
        "meta_eccentricity": 0.03407993,
        "meta_inclination": 73.8889,
        "meta_ra_of_asc_node": 64.8358,
        "meta_arg_of_pericenter": 114.8803,
        "meta_mean_anomaly": 248.8145,
        "meta_ephemeris_type": 0,
        "meta_classification_type": "U",
        "meta_norad_cat_id": 35706,
        "meta_element_set_no": 999,
        "meta_rev_at_epoch": 62045,
        "meta_bstar": 0.0015097542,
        "meta_mean_motion_dot": 1.827e-05,
        "meta_mean_motion_ddot": 0,
        "tle_line1": "1 35706U 93036AQB 25345.51224501  .00001827  00000+0  15098-2 0  9993",
        "tle_line2": "2 35706  73.8889  64.8358 0340799 114.8803 248.8145 13.65920781620458"
      },
      "geometry": {
        "type": "Point",
        "coordinates": [
          107.31100553078875,
          68.27272835790221
        ]
      }
    },
    {
      "type": "Feature",
      "properties": {
        "norad_id": 35711,
        "name": "COSMOS 2251 DEB",
        "group": "cosmos-2251-debris",
        "lat": -32.87698413142767,
        "lon": 48.80510113903589,
        "alt_km": 701.4023145473266,
        "timestamp": "2025-12-13T22:39:30.107928+00:00",
        "meta_object_name": "COSMOS 2251 DEB",
        "meta_object_id": "1993-036AQG",
        "meta_epoch": "2025-12-12T07:57:00.074304",
        "meta_mean_motion": 14.63799963,
        "meta_eccentricity": 0.00853727,
        "meta_inclination": 74.0465,
        "meta_ra_of_asc_node": 221.2435,
        "meta_arg_of_pericenter": 322.3756,
        "meta_mean_anomaly": 37.1457,
        "meta_ephemeris_type": 0,
        "meta_classification_type": "U",
        "meta_norad_cat_id": 35711,
        "meta_element_set_no": 999,
        "meta_rev_at_epoch": 87765,
        "meta_bstar": 0.0003776445,
        "meta_mean_motion_dot": 2.044e-05,
        "meta_mean_motion_ddot": 0,
        "tle_line1": "1 35711U 93036AQG 25346.33125086  .00002044  00000+0  37764-3 0  9995",
        "tle_line2": "2 35711  74.0465 221.2435 0085372 322.3756  37.1457 14.63799963877654"
      },
      "geometry": {
        "type": "Point",
        "coordinates": [
          48.80510113903589,
          -32.87698413142767
        ]
      }
    },
    {
      "type": "Feature",
      "properties": {
        "norad_id": 35716,
        "name": "COSMOS 2251 DEB",
        "group": "cosmos-2251-debris",
        "lat": -72.26121669132041,
        "lon": 128.0767947324914,
        "alt_km": 725.7140281008997,
        "timestamp": "2025-12-13T22:39:30.107938+00:00",
        "meta_object_name": "COSMOS 2251 DEB",
        "meta_object_id": "1993-036AQM",
        "meta_epoch": "2025-12-10T22:58:34.278816",
        "meta_mean_motion": 14.60083428,
        "meta_eccentricity": 0.0088633,
        "meta_inclination": 73.9924,
        "meta_ra_of_asc_node": 197.6138,
        "meta_arg_of_pericenter": 39.0207,
        "meta_mean_anomaly": 26.7611,
        "meta_ephemeris_type": 0,
        "meta_classification_type": "U",
        "meta_norad_cat_id": 35716,
        "meta_element_set_no": 999,
        "meta_rev_at_epoch": 87601,
        "meta_bstar": 0.00015815,
        "meta_mean_motion_dot": 7.71e-06,
        "meta_mean_motion_ddot": 0,
        "tle_line1": "1 35716U 93036AQM 25344.95734119  .00000771  00000+0  15815-3 0  9997",
        "tle_line2": "2 35716  73.9924 197.6138 0088633  39.0207  26.7611 14.60083428876013"
      },
      "geometry": {
        "type": "Point",
        "coordinates": [
          128.0767947324914,
          -72.26121669132041
        ]
      }
    },
    {
      "type": "Feature",
      "properties": {
        "norad_id": 35717,
        "name": "COSMOS 2251 DEB",
        "group": "cosmos-2251-debris",
        "lat": -44.29661541944583,
        "lon": -160.78753212202605,
        "alt_km": 797.7410974060376,
        "timestamp": "2025-12-13T22:39:30.107948+00:00",
        "meta_object_name": "COSMOS 2251 DEB",
        "meta_object_id": "1993-036AQN",
        "meta_epoch": "2025-12-11T09:07:06.227616",
        "meta_mean_motion": 14.38476212,
        "meta_eccentricity": 0.00768139,
        "meta_inclination": 74.1604,
        "meta_ra_of_asc_node": 219.9837,
        "meta_arg_of_pericenter": 79.9617,
        "meta_mean_anomaly": 281.0194,
        "meta_ephemeris_type": 0,
        "meta_classification_type": "U",
        "meta_norad_cat_id": 35717,
        "meta_element_set_no": 999,
        "meta_rev_at_epoch": 74080,
        "meta_bstar": 0.0019460313,
        "meta_mean_motion_dot": 6.131e-05,
        "meta_mean_motion_ddot": 0,
        "tle_line1": "1 35717U 93036AQN 25345.37993319  .00006131  00000+0  19460-2 0  9999",
        "tle_line2": "2 35717  74.1604 219.9837 0076813  79.9617 281.0194 14.38476212740802"
      },
      "geometry": {
        "type": "Point",
        "coordinates": [
          -160.78753212202605,
          -44.29661541944583
        ]
      }
    },
    {
      "type": "Feature",
      "properties": {
        "norad_id": 35718,
        "name": "COSMOS 2251 DEB",
        "group": "cosmos-2251-debris",
        "lat": -8.218348080629422,
        "lon": -49.9881719788859,
        "alt_km": 661.379198898373,
        "timestamp": "2025-12-13T22:39:30.107958+00:00",
        "meta_object_name": "COSMOS 2251 DEB",
        "meta_object_id": "1993-036AQP",
        "meta_epoch": "2025-12-12T03:17:53.201184",
        "meta_mean_motion": 14.68638717,
        "meta_eccentricity": 0.00109549,
        "meta_inclination": 74.0319,
        "meta_ra_of_asc_node": 131.1364,
        "meta_arg_of_pericenter": 179.8219,
        "meta_mean_anomaly": 180.2958,
        "meta_ephemeris_type": 0,
        "meta_classification_type": "U",
        "meta_norad_cat_id": 35718,
        "meta_element_set_no": 999,
        "meta_rev_at_epoch": 65831,
        "meta_bstar": 0.002396412,
        "meta_mean_motion_dot": 0.00013946,
        "meta_mean_motion_ddot": 0,
        "tle_line1": "1 35718U 93036AQP 25346.13742131  .00013946  00000+0  23964-2 0  9995",
        "tle_line2": "2 35718  74.0319 131.1364 0010954 179.8219 180.2958 14.68638717658312"
      },
      "geometry": {
        "type": "Point",
        "coordinates": [
          -49.9881719788859,
          -8.218348080629422
        ]
      }
    },
    {
      "type": "Feature",
      "properties": {
        "norad_id": 35721,
        "name": "COSMOS 2251 DEB",
        "group": "cosmos-2251-debris",
        "lat": 58.515441557022996,
        "lon": -156.4365309927996,
        "alt_km": 789.5843499254443,
        "timestamp": "2025-12-13T22:39:30.107969+00:00",
        "meta_object_name": "COSMOS 2251 DEB",
        "meta_object_id": "1993-036AQS",
        "meta_epoch": "2025-12-09T19:36:39.465216",
        "meta_mean_motion": 14.34317214,
        "meta_eccentricity": 0.01465875,
        "meta_inclination": 73.9489,
        "meta_ra_of_asc_node": 183.1196,
        "meta_arg_of_pericenter": 330.1589,
        "meta_mean_anomaly": 29.126,
        "meta_ephemeris_type": 0,
        "meta_classification_type": "U",
        "meta_norad_cat_id": 35721,
        "meta_element_set_no": 999,
        "meta_rev_at_epoch": 57747,
        "meta_bstar": 0.0018396061,
        "meta_mean_motion_dot": 5.808e-05,
        "meta_mean_motion_ddot": 0,
        "tle_line1": "1 35721U 93036AQS 25343.81712344  .00005808  00000+0  18396-2 0  9995",
        "tle_line2": "2 35721  73.9489 183.1196 0146587 330.1589  29.1260 14.34317214577479"
      },
      "geometry": {
        "type": "Point",
        "coordinates": [
          -156.4365309927996,
          58.515441557022996
        ]
      }
    }
  ]
}